OSCAR 7 (AO-7)          
1 07530U 74089B   26157.94104381 -.00000046  00000+0  45809-5 0  9995
2 07530 101.9901 171.0806 0012469 149.2350 327.1489 12.53697893359236
PHASE 3B (AO-10)        
1 14129U 83058B   26156.71565058 -.00000155  00000+0  00000+0 0  9998
2 14129  25.9038 221.4654 6014762 112.5116 319.5552  2.05872928295259
UOSAT 2 (UO-11)         
1 14781U 84021B   26158.15325762  .00001194  00000+0  12717-3 0  9994
2 14781  97.8052 123.8404 0006728 206.8007 153.2864 14.90758666255634
LUSAT (LO-19)           
1 20442U 90005G   26158.34456517  .00000136  00000+0  65399-4 0  9998
2 20442  98.8853 179.8787 0010643 231.7888 128.2338 14.34120269900988
EYESAT A (AO-27)        
1 22825U 93061C   26158.14059956  .00000125  00000+0  64541-4 0  9990
2 22825  98.6881 225.5574 0009348 125.8685 234.3367 14.30939726705565
ITAMSAT (IO-26)         
1 22826U 93061D   26157.63368579  .00000104  00000+0  56152-4 0  9994
2 22826  98.6828 224.9671 0010034 112.4178 247.8069 14.31365981705803
RADIO ROSTO (RS15)      
1 23439U 94085A   26158.18280375 -.00000032  00000+0  31161-3 0  9993
2 23439  64.8186 319.3964 0155640   5.7239 354.5419 11.27583633294777
JAS-2 (FO-29)           
1 24278U 96046B   26158.32988280 -.00000018  00000+0  14338-4 0  9992
2 24278  98.5249   8.5522 0350731 121.9451 241.6299 13.53273665471833
TECHSAT 1B (GO-32)      
1 25397U 98043D   26157.59817634  .00000069  00000+0  49896-4 0  9998
2 25397  99.0065 150.0898 0000464 193.9791 166.1374 14.24426350449827
ISS (ZARYA)             
1 25544U 98067A   26158.32089647  .00008946  00000+0  16649-3 0  9996
2 25544  51.6340 348.9335 0006961 143.5924 216.5539 15.49651405570223
PCSAT (NO-44)           
1 26931U 01043C   26158.03172196  .00000144  00000+0  84457-4 0  9990
2 26931  67.0513 270.5377 0006114 264.2212  95.8193 14.31952522288992
SAUDISAT 1C (SO-50)     
1 27607U 02058C   26158.24267670  .00001225  00000+0  16136-3 0  9992
2 27607  64.5504 159.7532 0075455 264.2954  94.9545 14.83025886262986
CUTE-1 (CO-55)          
1 27844U 03031E   26157.49994927  .00000321  00000+0  15775-3 0  9999
2 27844  98.6735 166.1932 0008851 210.1158 149.9513 14.24329258190151
CUBESAT XI-IV (CO-57)   
1 27848U 03031J   26157.55333329  .00000268  00000+0  13659-3 0  9992
2 27848  98.6767 165.9671 0008459 230.3427 129.7005 14.23615194189868
MOZHAETS 4 (RS22)       
1 27939U 03042A   26158.56300939  .00001355  00000+0  21690-3 0  9990
2 27939  98.3472 342.6498 0010215 303.9342  84.6334 14.73451912214130
CUBESAT XI-V            
1 28895U 05043F   26157.66697904  .00001638  00000+0  26546-3 0  9995
2 28895  98.2975 313.0688 0013037 235.8954 124.1016 14.72603733100207
CUTE-1.7+APD II (CO-65) 
1 32785U 08021C   26158.23858507  .00006197  00000+0  39187-3 0  9999
2 32785  97.8270 139.4511 0010393  67.8942 292.3389 15.09355323983693
SEEDS II (CO-66)        
1 32791U 08021J   26157.55833225  .00023420  00000+0  75009-3 0  9991
2 32791  97.7518 154.9517 0002601  35.3933 324.7480 15.32385592985663
YUBILEINY (RS30)        
1 32953U 08025A   26158.52157465  .00000029  00000+0  14092-3 0  9993
2 32953  82.5046   1.4537 0019274 335.6145  24.4021 12.43178975818499
KKS-1 (KISEKI)          
1 33499U 09002H   26158.47392738  .00001647  00000+0  20897-3 0  9990
2 33499  98.1193  80.7624 0007141 332.0864  27.9965 14.83100184934753
SWISSCUBE               
1 35932U 09051B   26158.24807612  .00001230  00000+0  25261-3 0  9993
2 35932  98.4042  65.9631 0005474 239.3453 120.7208 14.62463612887705
BEESAT-1                
1 35933U 09051C   26158.45771108  .00000992  00000+0  20891-3 0  9995
2 35933  98.3972  65.8321 0003902 255.7075 104.3692 14.61705451887768
ITUPSAT1                
1 35935U 09051E   26157.68643730  .00000831  00000+0  18172-3 0  9991
2 35935  98.4055  64.2519 0006097 273.4297  86.6205 14.60425026887203
XIWANG-1 (HOPE-1)       
1 36122U 09072B   26158.51599387  .00000185  00000+0  60129-3 0  9995
2 36122 100.4027 112.5030 0006783 256.1961 103.8397 13.16440265791736
O/OREOS (USA 219)       
1 37224U 10062C   26158.21753913  .00002838  00000+0  27358-3 0  9998
2 37224  71.9703 102.9208 0012357  84.9169 275.3411 14.93701889115150
JUGNU                   
1 37839U 11058B   26158.29638046  .00000448  00000+0  94356-4 0  9991
2 37839  19.9622   8.5160 0018510 327.3339 207.6155 14.13774252757625
SRMSAT                  
1 37841U 11058D   26157.27188351  .00000385  00000+0  65061-4 0  9991
2 37841  19.9704 125.5359 0011947  84.3565  18.6414 14.11573396756279
STRAND-1                
1 39090U 13009E   26158.23931919  .00000328  00000+0  12474-3 0  9996
2 39090  98.3920 338.7188 0007407 259.4437 100.5915 14.37157528695637
ZACUBE-1 (TSHEPISOSAT)  
1 39417U 13066B   26158.14216119  .00004465  00000+0  34772-3 0  9991
2 39417  97.8099 120.4248 0039960 283.1130  76.5636 15.01125110679220
GOMX-1                  
1 39430U 13066Q   26158.51656233  .00002574  00000+0  38929-3 0  9999
2 39430  97.6491 359.5890 0130098 108.2777 253.2636 14.69424459668497
